IRIDIUM 159             
1 43578U 18061K   25194.06146342  .00000012  00000+0 -28027-5 0  9997
2 43578  86.3985 198.3944 0002332  93.8328 266.3134 14.34217800364771
IRIDIUM 180             
1 43922U 19002A   25194.54934005  .00000073  00000+0  19122-4 0  9991
2 43922  86.3998 135.1735 0002343  83.3156 276.8306 14.34217999340499
IRIDIUM 176             
1 43923U 19002B   25194.54388953  .00000660  00000+0  10070-3 0  9991
2 43923  86.6123 135.1666 0002641  72.0860 288.0645 14.72250408349421
IRIDIUM 168             
1 43924U 19002C   25194.12438621  .00000074  00000+0  19331-4 0  9993
2 43924  86.4001 135.4187 0002302  84.2204 275.9254 14.34217523340372
IRIDIUM 173             
1 43925U 19002D   25193.90239969  .00000092  00000+0  25733-4 0  9996
2 43925  86.3996 135.4141 0002390  80.5405 279.6060 14.34215180340322
IRIDIUM 169             
1 43926U 19002E   25193.68094561  .00000219  00000+0  65248-4 0  9995
2 43926  86.4257 167.0915 0002540  50.4964 309.6458 14.38604996341414
IRIDIUM 172             
1 43927U 19002F   25194.38443319  .00000073  00000+0  19006-4 0  9992
2 43927  86.3998 135.2199 0002528  85.8495 274.2990 14.34217923340406
IRIDIUM 175             
1 43928U 19002G   25194.40294612  .00000638  00000+0  97288-4 0  9991
2 43928  86.1487  86.2469 0001439  78.3999 281.7379 14.72249014349398
